INMARSAT 4-F2           
1 28899U 05044A   26095.26934897 -.00000258  00000+0  00000+0 0  9993
2 28899   5.0001  43.7744 0003362 353.0078  37.2524  1.00273224 74794
GSAT-8                  
1 37605U 11022A   26095.18545928  .00000087  00000+0  00000+0 0  9994
2 37605   1.9425  82.6993 0005641 224.8405   7.7690  1.00272068 52486
LUCH-5A                 
1 37951U 11074B   26095.20755938 -.00000046  00000+0  00000+0 0  9998
2 37951   8.5692  74.8663 0003158 285.7906  74.4996  1.00271373 52320
SES-5                   
1 38652U 12036A   26095.22822667  .00000035  00000+0  00000+0 0  9999
2 38652   0.0599 303.0130 0002016  75.2098 262.4372  1.00271682 43728
GSAT-10                 
1 38779U 12051B   26095.12316836 -.00000164  00000+0  00000+0 0  9995
2 38779   0.0824 265.6529 0006267 171.8567 243.2403  1.00273123 49360
LUCH-5B                 
1 38977U 12061A   26095.17124588 -.00000134  00000+0  00000+0 0  9999
2 38977  10.3284  50.5926 0002337 229.5635 318.6546  1.00273707 48875
ASTRA 5B                
1 39617U 14011B   26095.21711404  .00000138  00000+0  00000+0 0  9995
2 39617   0.0730 306.6325 0003364  49.4986 299.0350  1.00273337 43932
LUCH-5V                 
1 39727U 14023A   26094.98775242 -.00000266  00000+0  00000+0 0  9996
2 39727   4.9540  70.4607 0002893 320.3362 252.8216  1.00270325 43628
GSAT-15                 
1 41028U 15065A   26095.12753198  .00000000  00000+0  00000+0 0  9998
2 41028   0.0183 220.1274 0002795 191.7575 280.9440  1.00268756 38064
EUTELSAT 117 WEST B     
1 41589U 16038B   26095.22263942 -.00000010  00000+0  00000+0 0  9997
2 41589   0.0144  59.8312 0000400 210.4490 246.4043  1.00270000 35933
SES-15                  
1 42709U 17026A   26095.24280647  .00000061  00000+0  00000+0 0  9998
2 42709   0.0309 319.9281 0000760  63.9952 127.8662  1.00270997  6706
QZS-2 (MICHIBIKI-2)     
1 42738U 17028A   26095.27195000 -.00000203  00000+0  00000+0 0  9992
2 42738  39.5436 244.2157 0742094 270.6147 276.4746  1.00253447  6899
QZS-3 (MICHIBIKI-3)     
1 42917U 17048A   26095.27099667 -.00000347  00000+0  00000+0 0  9994
2 42917   0.0646 144.1384 0002126 235.1102  38.9211  1.00271169 31523
QZS-4 (MICHIBIKI-4)     
1 42965U 17062A   26094.55887769 -.00000333  00000+0  00000+0 0  9996
2 42965  40.1528 344.4243 0747408 270.4918 279.7143  1.00272817 31064
BEIDOU-3 G1             
1 43683U 18085A   26091.86294493 -.00000284  00000+0  00000+0 0  9992
2 43683   2.8820  99.4564 0002058  12.9832 168.3736  1.00268589 27296
EUTELSAT 5 WEST B       
1 44624U 19067A   26095.24482322 -.00000041  00000+0  00000+0 0  9996
2 44624   0.0660  12.3503 0003462  12.4462 251.8810  1.00272865 23700
BEIDOU-3 G2             
1 45344U 20017A   26095.12316836 -.00000138  00000+0  00000+0 0  9993
2 45344   2.7181  46.1506 0002845 336.9903 294.6728  1.00272116 22524
