[{"OBJECT_NAME":"INMARSAT 4-F2 (SOUTHPAN/PRN 122)","OBJECT_ID":"2005-044A","EPOCH":"2026-04-05T06:27:51.751008","MEAN_MOTION":1.00273224,"ECCENTRICITY":0.00033621,"INCLINATION":5.0001,"RA_OF_ASC_NODE":43.7744,"ARG_OF_PERICENTER":353.0078,"MEAN_ANOMALY":37.2524,"EPHEMERIS_TYPE":0,"CLASSIFICATION_TYPE":"U","NORAD_CAT_ID":28899,"ELEMENT_SET_NO":999,"REV_AT_EPOCH":7479,"BSTAR":0,"MEAN_MOTION_DOT":-2.58e-6,"MEAN_MOTION_DDOT":0},{"OBJECT_NAME":"GSAT-8 (GAGAN/PRN 127)","OBJECT_ID":"2011-022A","EPOCH":"2026-04-05T04:27:03.681792","MEAN_MOTION":1.00272068,"ECCENTRICITY":0.00056412,"INCLINATION":1.9425,"RA_OF_ASC_NODE":82.6993,"ARG_OF_PERICENTER":224.8405,"MEAN_ANOMALY":7.769,"EPHEMERIS_TYPE":0,"CLASSIFICATION_TYPE":"U","NORAD_CAT_ID":37605,"ELEMENT_SET_NO":999,"REV_AT_EPOCH":5248,"BSTAR":0,"MEAN_MOTION_DOT":8.7e-7,"MEAN_MOTION_DDOT":0},{"OBJECT_NAME":"LUCH 5A (SDCM/PRN 140)","OBJECT_ID":"2011-074B","EPOCH":"2026-04-05T04:58:53.130432","MEAN_MOTION":1.00271373,"ECCENTRICITY":0.0003158,"INCLINATION":8.5692,"RA_OF_ASC_NODE":74.8663,"ARG_OF_PERICENTER":285.7906,"MEAN_ANOMALY":74.4996,"EPHEMERIS_TYPE":0,"CLASSIFICATION_TYPE":"U","NORAD_CAT_ID":37951,"ELEMENT_SET_NO":999,"REV_AT_EPOCH":5232,"BSTAR":0,"MEAN_MOTION_DOT":-4.6e-7,"MEAN_MOTION_DDOT":0},{"OBJECT_NAME":"SES-5 (EGNOS/PRN 136)","OBJECT_ID":"2012-036A","EPOCH":"2026-04-05T05:28:38.784288","MEAN_MOTION":1.00271682,"ECCENTRICITY":0.00020162,"INCLINATION":0.0599,"RA_OF_ASC_NODE":303.013,"ARG_OF_PERICENTER":75.2098,"MEAN_ANOMALY":262.4372,"EPHEMERIS_TYPE":0,"CLASSIFICATION_TYPE":"U","NORAD_CAT_ID":38652,"ELEMENT_SET_NO":999,"REV_AT_EPOCH":4372,"BSTAR":0,"MEAN_MOTION_DOT":3.5e-7,"MEAN_MOTION_DDOT":0},{"OBJECT_NAME":"GSAT-10 (GAGAN/PRN 128)","OBJECT_ID":"2012-051B","EPOCH":"2026-04-05T02:57:21.746304","MEAN_MOTION":1.00273123,"ECCENTRICITY":0.00062673,"INCLINATION":0.0824,"RA_OF_ASC_NODE":265.6529,"ARG_OF_PERICENTER":171.8567,"MEAN_ANOMALY":243.2403,"EPHEMERIS_TYPE":0,"CLASSIFICATION_TYPE":"U","NORAD_CAT_ID":38779,"ELEMENT_SET_NO":999,"REV_AT_EPOCH":4936,"BSTAR":0,"MEAN_MOTION_DOT":-1.64e-6,"MEAN_MOTION_DDOT":0},{"OBJECT_NAME":"LUCH 5B (SDCM/PRN 125)","OBJECT_ID":"2012-061A","EPOCH":"2026-04-05T04:06:35.644032","MEAN_MOTION":1.00273707,"ECCENTRICITY":0.00023371,"INCLINATION":10.3284,"RA_OF_ASC_NODE":50.5926,"ARG_OF_PERICENTER":229.5635,"MEAN_ANOMALY":318.6546,"EPHEMERIS_TYPE":0,"CLASSIFICATION_TYPE":"U","NORAD_CAT_ID":38977,"ELEMENT_SET_NO":999,"REV_AT_EPOCH":4887,"BSTAR":0,"MEAN_MOTION_DOT":-1.34e-6,"MEAN_MOTION_DDOT":0},{"OBJECT_NAME":"ASTRA 5B (EGNOS/PRN 123)","OBJECT_ID":"2014-011B","EPOCH":"2026-04-05T05:12:38.653056","MEAN_MOTION":1.00273337,"ECCENTRICITY":0.00033646,"INCLINATION":0.073,"RA_OF_ASC_NODE":306.6325,"ARG_OF_PERICENTER":49.4986,"MEAN_ANOMALY":299.035,"EPHEMERIS_TYPE":0,"CLASSIFICATION_TYPE":"U","NORAD_CAT_ID":39617,"ELEMENT_SET_NO":999,"REV_AT_EPOCH":4393,"BSTAR":0,"MEAN_MOTION_DOT":1.38e-6,"MEAN_MOTION_DDOT":0},{"OBJECT_NAME":"LUCH 5V (SDCM/PRN 141)","OBJECT_ID":"2014-023A","EPOCH":"2026-04-04T23:42:21.809088","MEAN_MOTION":1.00270325,"ECCENTRICITY":0.00028935,"INCLINATION":4.954,"RA_OF_ASC_NODE":70.4607,"ARG_OF_PERICENTER":320.3362,"MEAN_ANOMALY":252.8216,"EPHEMERIS_TYPE":0,"CLASSIFICATION_TYPE":"U","NORAD_CAT_ID":39727,"ELEMENT_SET_NO":999,"REV_AT_EPOCH":4362,"BSTAR":0,"MEAN_MOTION_DOT":-2.66e-6,"MEAN_MOTION_DDOT":0},{"OBJECT_NAME":"GSAT-15 (GAGAN/PRN 139)","OBJECT_ID":"2015-065A","EPOCH":"2026-04-05T03:03:38.763072","MEAN_MOTION":1.00268756,"ECCENTRICITY":0.00027959,"INCLINATION":0.0183,"RA_OF_ASC_NODE":220.1274,"ARG_OF_PERICENTER":191.7575,"MEAN_ANOMALY":280.944,"EPHEMERIS_TYPE":0,"CLASSIFICATION_TYPE":"U","NORAD_CAT_ID":41028,"ELEMENT_SET_NO":999,"REV_AT_EPOCH":3806,"BSTAR":0,"MEAN_MOTION_DOT":0,"MEAN_MOTION_DDOT":0},{"OBJECT_NAME":"EUTELSAT 117 WEST B (WAAS/PRN 131)","OBJECT_ID":"2016-038B","EPOCH":"2026-04-05T05:20:36.045888","MEAN_MOTION":1.0027,"ECCENTRICITY":4.001e-5,"INCLINATION":0.0144,"RA_OF_ASC_NODE":59.8312,"ARG_OF_PERICENTER":210.449,"MEAN_ANOMALY":246.4043,"EPHEMERIS_TYPE":0,"CLASSIFICATION_TYPE":"U","NORAD_CAT_ID":41589,"ELEMENT_SET_NO":999,"REV_AT_EPOCH":3593,"BSTAR":0,"MEAN_MOTION_DOT":-1.0e-7,"MEAN_MOTION_DDOT":0},{"OBJECT_NAME":"SES-15 (WAAS/PRN 133)","OBJECT_ID":"2017-026A","EPOCH":"2026-04-05T05:49:38.479008","MEAN_MOTION":1.00270997,"ECCENTRICITY":7.603e-5,"INCLINATION":0.0309,"RA_OF_ASC_NODE":319.9281,"ARG_OF_PERICENTER":63.9952,"MEAN_ANOMALY":127.8662,"EPHEMERIS_TYPE":0,"CLASSIFICATION_TYPE":"U","NORAD_CAT_ID":42709,"ELEMENT_SET_NO":999,"REV_AT_EPOCH":670,"BSTAR":0,"MEAN_MOTION_DOT":6.1e-7,"MEAN_MOTION_DDOT":0},{"OBJECT_NAME":"QZS-2 (QZSS/PRN 194)","OBJECT_ID":"2017-028A","EPOCH":"2026-04-05T06:31:36.480000","MEAN_MOTION":1.00253447,"ECCENTRICITY":0.07420946,"INCLINATION":39.5436,"RA_OF_ASC_NODE":244.2157,"ARG_OF_PERICENTER":270.6147,"MEAN_ANOMALY":276.4746,"EPHEMERIS_TYPE":0,"CLASSIFICATION_TYPE":"U","NORAD_CAT_ID":42738,"ELEMENT_SET_NO":999,"REV_AT_EPOCH":689,"BSTAR":0,"MEAN_MOTION_DOT":-2.03e-6,"MEAN_MOTION_DDOT":0},{"OBJECT_NAME":"QZS-3 (QZSS/PRN 199)","OBJECT_ID":"2017-048A","EPOCH":"2026-04-05T06:30:14.112288","MEAN_MOTION":1.00271169,"ECCENTRICITY":0.00021263,"INCLINATION":0.0646,"RA_OF_ASC_NODE":144.1384,"ARG_OF_PERICENTER":235.1102,"MEAN_ANOMALY":38.9211,"EPHEMERIS_TYPE":0,"CLASSIFICATION_TYPE":"U","NORAD_CAT_ID":42917,"ELEMENT_SET_NO":999,"REV_AT_EPOCH":3152,"BSTAR":0,"MEAN_MOTION_DOT":-3.47e-6,"MEAN_MOTION_DDOT":0},{"OBJECT_NAME":"QZS-4 (QZSS/PRN 195)","OBJECT_ID":"2017-062A","EPOCH":"2026-04-04T13:24:47.032416","MEAN_MOTION":1.00272817,"ECCENTRICITY":0.0747408,"INCLINATION":40.1528,"RA_OF_ASC_NODE":344.4243,"ARG_OF_PERICENTER":270.4918,"MEAN_ANOMALY":279.7143,"EPHEMERIS_TYPE":0,"CLASSIFICATION_TYPE":"U","NORAD_CAT_ID":42965,"ELEMENT_SET_NO":999,"REV_AT_EPOCH":3106,"BSTAR":0,"MEAN_MOTION_DOT":-3.33e-6,"MEAN_MOTION_DDOT":0},{"OBJECT_NAME":"BEIDOU-3 G1 (PRN 130)","OBJECT_ID":"2018-085A","EPOCH":"2026-04-01T20:42:38.441952","MEAN_MOTION":1.00268589,"ECCENTRICITY":0.00020589,"INCLINATION":2.882,"RA_OF_ASC_NODE":99.4564,"ARG_OF_PERICENTER":12.9832,"MEAN_ANOMALY":168.3736,"EPHEMERIS_TYPE":0,"CLASSIFICATION_TYPE":"U","NORAD_CAT_ID":43683,"ELEMENT_SET_NO":999,"REV_AT_EPOCH":2729,"BSTAR":0,"MEAN_MOTION_DOT":-2.84e-6,"MEAN_MOTION_DDOT":0},{"OBJECT_NAME":"EUTELSAT 5 WEST B (EGNOS/PRN 121)","OBJECT_ID":"2019-067A","EPOCH":"2026-04-05T05:52:32.726208","MEAN_MOTION":1.00272865,"ECCENTRICITY":0.00034622,"INCLINATION":0.066,"RA_OF_ASC_NODE":12.3503,"ARG_OF_PERICENTER":12.4462,"MEAN_ANOMALY":251.881,"EPHEMERIS_TYPE":0,"CLASSIFICATION_TYPE":"U","NORAD_CAT_ID":44624,"ELEMENT_SET_NO":999,"REV_AT_EPOCH":2370,"BSTAR":0,"MEAN_MOTION_DOT":-4.1e-7,"MEAN_MOTION_DDOT":0},{"OBJECT_NAME":"BEIDOU-3 G2 (PRN 144)","OBJECT_ID":"2020-017A","EPOCH":"2026-04-05T02:57:21.746304","MEAN_MOTION":1.00272116,"ECCENTRICITY":0.00028459,"INCLINATION":2.7181,"RA_OF_ASC_NODE":46.1506,"ARG_OF_PERICENTER":336.9903,"MEAN_ANOMALY":294.6728,"EPHEMERIS_TYPE":0,"CLASSIFICATION_TYPE":"U","NORAD_CAT_ID":45344,"ELEMENT_SET_NO":999,"REV_AT_EPOCH":2252,"BSTAR":0,"MEAN_MOTION_DOT":-1.38e-6,"MEAN_MOTION_DDOT":0}]
